CCSDS_OMM_VERS = 2.0
CREATION_DATE  = 
ORIGINATOR     = 

OBJECT_NAME    = STARLINK-35733
OBJECT_ID      = 2025-244U
CENTER_NAME    = EARTH
REF_FRAME      = TEME
TIME_SYSTEM    = UTC
MEAN_ELEMENT_THEORY = SGP/SGP4

EPOCH          = 2025-11-08T17:37:38.969184
MEAN_MOTION    = 15.81053647
ECCENTRICITY   = .0011123
INCLINATION    = 53.1539
RA_OF_ASC_NODE = 77.9400
ARG_OF_PERICENTER = 341.9241
MEAN_ANOMALY   = 18.1384

EPHEMERIS_TYPE = 0
CLASSIFICATION_TYPE = U
NORAD_CAT_ID   = 66224
ELEMENT_SET_NO = 999
REV_AT_EPOCH   = 305
BSTAR          = .32678E-2
MEAN_MOTION_DOT = .707113E-2
MEAN_MOTION_DDOT = 0

CCSDS_OMM_VERS = 2.0
CREATION_DATE  = 
ORIGINATOR     = 

OBJECT_NAME    = STARLINK-35734
OBJECT_ID      = 2025-244V
CENTER_NAME    = EARTH
REF_FRAME      = TEME
TIME_SYSTEM    = UTC
MEAN_ELEMENT_THEORY = SGP/SGP4

EPOCH          = 2025-11-08T13:04:38.660160
MEAN_MOTION    = 15.82593567
ECCENTRICITY   = .00118
INCLINATION    = 53.1539
RA_OF_ASC_NODE = 78.8918
ARG_OF_PERICENTER = 323.5754
MEAN_ANOMALY   = 36.4465

EPHEMERIS_TYPE = 0
CLASSIFICATION_TYPE = U
NORAD_CAT_ID   = 66225
ELEMENT_SET_NO = 999
REV_AT_EPOCH   = 302
BSTAR          = .8964E-2
MEAN_MOTION_DOT = .2190343E-1
MEAN_MOTION_DDOT = 0

CCSDS_OMM_VERS = 2.0
CREATION_DATE  = 
ORIGINATOR     = 

OBJECT_NAME    = STARLINK-34466
OBJECT_ID      = 2025-244W
CENTER_NAME    = EARTH
REF_FRAME      = TEME
TIME_SYSTEM    = UTC
MEAN_ELEMENT_THEORY = SGP/SGP4

EPOCH          = 2025-11-08T19:08:44.971008
MEAN_MOTION    = 15.78830283
ECCENTRICITY   = .0001146
INCLINATION    = 53.1541
RA_OF_ASC_NODE = 77.6230
ARG_OF_PERICENTER = 222.9911
MEAN_ANOMALY   = 137.1022

EPHEMERIS_TYPE = 0
CLASSIFICATION_TYPE = U
NORAD_CAT_ID   = 66226
ELEMENT_SET_NO = 999
REV_AT_EPOCH   = 306
BSTAR          = -.33771E-2
MEAN_MOTION_DOT = -.569229E-2
MEAN_MOTION_DDOT = 0

CCSDS_OMM_VERS = 2.0
CREATION_DATE  = 
ORIGINATOR     = 

OBJECT_NAME    = STARLINK-34882
OBJECT_ID      = 2025-244X
CENTER_NAME    = EARTH
REF_FRAME      = TEME
TIME_SYSTEM    = UTC
MEAN_ELEMENT_THEORY = SGP/SGP4

EPOCH          = 2025-11-08T17:37:04.188864
MEAN_MOTION    = 15.79034274
ECCENTRICITY   = .0004089
INCLINATION    = 53.1544
RA_OF_ASC_NODE = 77.9365
ARG_OF_PERICENTER = 11.1537
MEAN_ANOMALY   = 348.9574

EPHEMERIS_TYPE = 0
CLASSIFICATION_TYPE = U
NORAD_CAT_ID   = 66227
ELEMENT_SET_NO = 999
REV_AT_EPOCH   = 305
BSTAR          = -.29514E-2
MEAN_MOTION_DOT = -.506396E-2
MEAN_MOTION_DDOT = 0

CCSDS_OMM_VERS = 2.0
CREATION_DATE  = 
ORIGINATOR     = 

OBJECT_NAME    = STARLINK-35731
OBJECT_ID      = 2025-244Y
CENTER_NAME    = EARTH
REF_FRAME      = TEME
TIME_SYSTEM    = UTC
MEAN_ELEMENT_THEORY = SGP/SGP4

EPOCH          = 2025-11-08T17:36:33.032160
MEAN_MOTION    = 15.78978387
ECCENTRICITY   = .0001862
INCLINATION    = 53.1538
RA_OF_ASC_NODE = 77.9340
ARG_OF_PERICENTER = 40.5120
MEAN_ANOMALY   = 319.6040

EPHEMERIS_TYPE = 0
CLASSIFICATION_TYPE = U
NORAD_CAT_ID   = 66228
ELEMENT_SET_NO = 999
REV_AT_EPOCH   = 305
BSTAR          = -.33174E-2
MEAN_MOTION_DOT = -.563456E-2
MEAN_MOTION_DDOT = 0

CCSDS_OMM_VERS = 2.0
CREATION_DATE  = 
ORIGINATOR     = 

OBJECT_NAME    = STARLINK-35758
OBJECT_ID      = 2025-244Z
CENTER_NAME    = EARTH
REF_FRAME      = TEME
TIME_SYSTEM    = UTC
MEAN_ELEMENT_THEORY = SGP/SGP4

EPOCH          = 2025-11-08T16:04:49.347840
MEAN_MOTION    = 15.79207286
ECCENTRICITY   = .0000594
INCLINATION    = 53.1541
RA_OF_ASC_NODE = 78.2480
ARG_OF_PERICENTER = 12.8137
MEAN_ANOMALY   = 347.2899

EPHEMERIS_TYPE = 0
CLASSIFICATION_TYPE = U
NORAD_CAT_ID   = 66229
ELEMENT_SET_NO = 999
REV_AT_EPOCH   = 304
BSTAR          = -.29449E-2
MEAN_MOTION_DOT = -.508525E-2
MEAN_MOTION_DDOT = 0

CCSDS_OMM_VERS = 2.0
CREATION_DATE  = 
ORIGINATOR     = 

OBJECT_NAME    = STARLINK-35736
OBJECT_ID      = 2025-244AA
CENTER_NAME    = EARTH
REF_FRAME      = TEME
TIME_SYSTEM    = UTC
MEAN_ELEMENT_THEORY = SGP/SGP4

EPOCH          = 2025-11-08T13:01:24.563424
MEAN_MOTION    = 15.85529615
ECCENTRICITY   = .0029828
INCLINATION    = 53.1537
RA_OF_ASC_NODE = 78.8750
ARG_OF_PERICENTER = 271.6145
MEAN_ANOMALY   = 88.1463

EPHEMERIS_TYPE = 0
CLASSIFICATION_TYPE = U
NORAD_CAT_ID   = 66230
ELEMENT_SET_NO = 999
REV_AT_EPOCH   = 302
BSTAR          = .47057E-1
MEAN_MOTION_DOT = .8927893E-1
MEAN_MOTION_DDOT = .12654E+0

CCSDS_OMM_VERS = 2.0
CREATION_DATE  = 
ORIGINATOR     = 

OBJECT_NAME    = STARLINK-35735
OBJECT_ID      = 2025-244AB
CENTER_NAME    = EARTH
REF_FRAME      = TEME
TIME_SYSTEM    = UTC
MEAN_ELEMENT_THEORY = SGP/SGP4

EPOCH          = 2025-11-08T17:34:23.291328
MEAN_MOTION    = 15.80673347
ECCENTRICITY   = .0010561
INCLINATION    = 53.1541
RA_OF_ASC_NODE = 77.9245
ARG_OF_PERICENTER = 348.9114
MEAN_ANOMALY   = 11.1674

EPHEMERIS_TYPE = 0
CLASSIFICATION_TYPE = U
NORAD_CAT_ID   = 66231
ELEMENT_SET_NO = 999
REV_AT_EPOCH   = 305
BSTAR          = .36346E-2
MEAN_MOTION_DOT = .779164E-2
MEAN_MOTION_DDOT = 0

CCSDS_OMM_VERS = 2.0
CREATION_DATE  = 
ORIGINATOR     = 

OBJECT_NAME    = STARLINK-35753
OBJECT_ID      = 2025-244AC
CENTER_NAME    = EARTH
REF_FRAME      = TEME
TIME_SYSTEM    = UTC
MEAN_ELEMENT_THEORY = SGP/SGP4

EPOCH          = 2025-11-08T16:03:08.837856
MEAN_MOTION    = 15.79096826
ECCENTRICITY   = .0000255
INCLINATION    = 53.1540
RA_OF_ASC_NODE = 78.2406
ARG_OF_PERICENTER = 22.9049
MEAN_ANOMALY   = 337.1985

EPHEMERIS_TYPE = 0
CLASSIFICATION_TYPE = U
NORAD_CAT_ID   = 66232
ELEMENT_SET_NO = 999
REV_AT_EPOCH   = 304
BSTAR          = -.30014E-2
MEAN_MOTION_DOT = -.515226E-2
MEAN_MOTION_DDOT = 0

CCSDS_OMM_VERS = 2.0
CREATION_DATE  = 
ORIGINATOR     = 

OBJECT_NAME    = STARLINK-35626
OBJECT_ID      = 2025-244AD
CENTER_NAME    = EARTH
REF_FRAME      = TEME
TIME_SYSTEM    = UTC
MEAN_ELEMENT_THEORY = SGP/SGP4

EPOCH          = 2025-11-08T19:04:55.280064
MEAN_MOTION    = 15.78537853
ECCENTRICITY   = .0002349
INCLINATION    = 53.1538
RA_OF_ASC_NODE = 77.6051
ARG_OF_PERICENTER = 217.0151
MEAN_ANOMALY   = 143.0709

EPHEMERIS_TYPE = 0
CLASSIFICATION_TYPE = U
NORAD_CAT_ID   = 66233
ELEMENT_SET_NO = 999
REV_AT_EPOCH   = 306
BSTAR          = -.41489E-2
MEAN_MOTION_DOT = -.681378E-2
MEAN_MOTION_DDOT = 0

CCSDS_OMM_VERS = 2.0
CREATION_DATE  = 
ORIGINATOR     = 

OBJECT_NAME    = STARLINK-35537
OBJECT_ID      = 2025-245A
CENTER_NAME    = EARTH
REF_FRAME      = TEME
TIME_SYSTEM    = UTC
MEAN_ELEMENT_THEORY = SGP/SGP4

EPOCH          = 2025-11-08T20:00:01.999008
MEAN_MOTION    = 15.86557517
ECCENTRICITY   = .0001028
INCLINATION    = 53.1534
RA_OF_ASC_NODE = 132.2847
ARG_OF_PERICENTER = 44.9709
MEAN_ANOMALY   = 354.4729

EPHEMERIS_TYPE = 0
CLASSIFICATION_TYPE = U
NORAD_CAT_ID   = 66234
ELEMENT_SET_NO = 999
REV_AT_EPOCH   = 265
BSTAR          = -.46982E-2
MEAN_MOTION_DOT = -.1076111E-1
MEAN_MOTION_DDOT = 0

CCSDS_OMM_VERS = 2.0
CREATION_DATE  = 
ORIGINATOR     = 

OBJECT_NAME    = STARLINK-35541
OBJECT_ID      = 2025-245B
CENTER_NAME    = EARTH
REF_FRAME      = TEME
TIME_SYSTEM    = UTC
MEAN_ELEMENT_THEORY = SGP/SGP4

EPOCH          = 2025-11-08T20:00:01.999008
MEAN_MOTION    = 15.86590777
ECCENTRICITY   = .0000929
INCLINATION    = 53.1533
RA_OF_ASC_NODE = 132.2799
ARG_OF_PERICENTER = 54.6775
MEAN_ANOMALY   = 346.9413

EPHEMERIS_TYPE = 0
CLASSIFICATION_TYPE = U
NORAD_CAT_ID   = 66235
ELEMENT_SET_NO = 999
REV_AT_EPOCH   = 260
BSTAR          = -.47463E-2
MEAN_MOTION_DOT = -.108737E-1
MEAN_MOTION_DDOT = 0

