STARLINK-35733          
1 66224U 25244U   25312.73447881  .00707113  00000+0  32678-2 0  9998
2 66224  53.1539  77.9400 0011123 341.9241  18.1384 15.81053647  3050
STARLINK-35734          
1 66225U 25244V   25312.54489190  .02190343  00000+0  89640-2 0  9991
2 66225  53.1539  78.8918 0011800 323.5754  36.4465 15.82593567  3023
STARLINK-34466          
1 66226U 25244W   25312.79774272 -.00569229  00000+0 -33771-2 0  9994
2 66226  53.1541  77.6230 0001146 222.9911 137.1022 15.78830283  3066
STARLINK-34882          
1 66227U 25244X   25312.73407626 -.00506396  00000+0 -29514-2 0  9991
2 66227  53.1544  77.9365 0004089  11.1537 348.9574 15.79034274  3053
STARLINK-35731          
1 66228U 25244Y   25312.73371565 -.00563456  00000+0 -33174-2 0  9991
2 66228  53.1538  77.9340 0001862  40.5120 319.6040 15.78978387  3054
STARLINK-35758          
1 66229U 25244Z   25312.67001560 -.00508525  00000+0 -29449-2 0  9996
2 66229  53.1541  78.2480 0000594  12.8137 347.2899 15.79207286  3041
STARLINK-35736          
1 66230U 25244AA  25312.54264541  .08927893  12654+0  47057-1 0  9995
2 66230  53.1537  78.8750 0029828 271.6145  88.1463 15.85529615  3025
STARLINK-35735          
1 66231U 25244AB  25312.73221402  .00779164  00000+0  36346-2 0  9996
2 66231  53.1541  77.9245 0010561 348.9114  11.1674 15.80673347  3058
STARLINK-35753          
1 66232U 25244AC  25312.66885229 -.00515226  00000+0 -30014-2 0  9997
2 66232  53.1540  78.2406 0000255  22.9049 337.1985 15.79096826  3040
STARLINK-35626          
1 66233U 25244AD  25312.79508426 -.00681378  00000+0 -41489-2 0  9993
2 66233  53.1538  77.6051 0002349 217.0151 143.0709 15.78537853  3063
STARLINK-35537          
1 66234U 25245A   25312.83335647 -.01076111  00000+0 -46982-2 0  9990
2 66234  53.1534 132.2847 0001028  44.9709 354.4729 15.86557517  2652
STARLINK-35541          
1 66235U 25245B   25312.83335647 -.01087370  00000+0 -47463-2 0  9995
2 66235  53.1533 132.2799 0000929  54.6775 346.9413 15.86590777  2604
